OBJECT_NAME,OBJECT_ID,EPOCH,MEAN_MOTION,ECCENTRICITY,INCLINATION,RA_OF_ASC_NODE,ARG_OF_PERICENTER,MEAN_ANOMALY,EPHEMERIS_TYPE,CLASSIFICATION_TYPE,NORAD_CAT_ID,ELEMENT_SET_NO,REV_AT_EPOCH,BSTAR,MEAN_MOTION_DOT,MEAN_MOTION_DDOT
BEIDOU-3S IGSO-1S (C31),2015-019A,2026-06-30T18:56:21.441984,1.00249006,.00391773,49.1687,295.2980,191.9393,165.8805,0,U,40549,999,4120,0,-.147E-5,0
GPS BIIF-10 (PRN 08),2015-033A,2026-06-30T16:23:46.759776,2.00555717,.01151768,53.9720,266.5298,30.2516,330.4770,0,U,40730,999,8026,0,-.6E-7,0
BEIDOU-3S M2S (C58),2015-037A,2026-06-30T17:55:50.100960,1.86232345,.00087011,54.8577,301.5791,257.8706,102.0420,0,U,40748,999,7437,0,-.69E-6,0
BEIDOU-3S M1S (C57),2015-037B,2026-06-30T09:58:59.153088,1.86255036,.0003153,54.8549,301.5785,62.7564,297.2840,0,U,40749,999,7437,0,-.71E-6,0
GSAT0206 (GALILEO 10),2015-045B,2026-06-29T04:32:07.245600,1.70473826,.00017772,54.9419,221.2728,331.4774,28.6098,0,U,40890,999,6724,0,.71E-6,0
BEIDOU-3S IGSO-2S (C56),2015-053A,2026-06-30T16:52:41.290752,1.00257046,.00656789,49.1997,258.6211,193.2539,174.4507,0,U,40938,999,3949,0,-.93E-6,0
GPS BIIF-11 (PRN 10),2015-062A,2026-06-29T17:47:48.867648,2.00567192,.01122445,56.9678,30.3277,230.9838,128.0695,0,U,41019,999,7808,0,-.66E-6,0
GSAT-15 (GAGAN/PRN 139),2015-065A,2026-07-01T00:47:12.319008,1.00269592,.0004538,0.0442,256.9457,182.5095,304.9378,0,U,41028,999,3893,0,-.247E-5,0
GSAT0209 (GALILEO 12),2015-079A,2026-06-28T04:24:50.829696,1.70473803,.00050857,55.8335,100.9603,347.1897,12.7761,0,U,41174,999,6496,0,-.33E-6,0
GSAT0208 (GALILEO 11),2015-079B,2026-06-30T03:56:11.281344,1.70473794,.00047212,55.8332,100.9029,349.8259,10.1551,0,U,41175,999,6541,0,-.23E-6,0
IRNSS-1E,2016-003A,2026-06-29T19:51:21.425184,1.00272765,.00192006,33.2608,59.5670,178.7998,89.1855,0,U,41241,999,3820,0,-.31E-5,0
GPS BIIF-12 (PRN 32),2016-007A,2026-06-29T08:02:04.759584,2.00551119,.00952762,55.5311,88.9782,246.9428,112.0663,0,U,41328,999,7608,0,-.42E-6,0
COSMOS 2514 (751),2016-008A,2026-06-30T21:26:56.677920,2.13102729,.0011806,65.0127,312.5364,199.5264,160.4266,0,U,41330,999,8091,0,-.57E-6,0
BEIDOU-2 IGSO-6 (C13),2016-021A,2026-06-26T02:38:38.671584,1.00258926,.0057558,60.2385,37.9495,231.0163,137.2672,0,U,41434,999,3757,0,-.145E-5,0
IRNSS-1G,2016-027A,2026-06-30T16:24:05.094720,1.00280808,.00058067,5.2280,97.1626,4.8233,192.2540,0,U,41469,999,3731,0,-.327E-5,0
GSAT0211 (GALILEO 14),2016-030A,2026-06-27T22:35:47.691744,1.70474008,.00031164,55.0927,221.3989,320.4926,39.5816,0,U,41549,999,6285,0,.69E-6,0
GSAT0210 (GALILEO 13),2016-030B,2026-06-27T00:36:53.275104,1.70473957,.00077922,55.0912,221.4221,256.4220,103.5859,0,U,41550,999,6283,0,.65E-6,0
BEIDOU-2 G7 (C03),2016-037A,2026-07-01T01:19:38.525664,1.00270345,.0006794,1.7532,69.4272,3.1720,336.9759,0,U,41586,999,702,0,-.344E-5,0
EUTELSAT 117 WEST B (WAAS/PRN 131),2016-038B,2026-06-30T23:47:11.816736,1.00269383,.0000237,0.0226,113.5347,125.0097,280.3059,0,U,41589,999,3680,0,-.1E-7,0
GSAT0207 (GALILEO 15),2016-069A,2026-06-26T17:13:02.065728,1.70473700,.00050068,55.5042,100.8225,333.0982,26.8500,0,U,41859,999,5956,0,-.38E-6,0
GSAT0212 (GALILEO 16),2016-069B,2026-06-28T07:56:01.576320,1.70473934,.00044344,55.5028,100.7730,6.1382,353.8467,0,U,41860,999,5984,0,-.33E-6,0
GSAT0213 (GALILEO 17),2016-069C,2026-06-28T02:40:06.685536,1.70474290,.00045371,55.5047,100.7870,315.9585,43.9839,0,U,41861,999,5970,0,-.34E-6,0
GSAT0214 (GALILEO 18),2016-069D,2026-06-28T06:10:43.038048,1.70473610,.00035484,55.5035,100.7756,328.2164,31.7414,0,U,41862,999,5983,0,-.33E-6,0
SES-15 (WAAS/PRN 133),2017-026A,2026-06-30T23:43:42.154176,1.00268858,.0000722,0.0216,336.8301,110.3055,58.6709,0,U,42709,999,757,0,.71E-6,0
QZS-2 (QZSS/PRN 194),2017-028A,2026-06-30T11:22:28.547328,1.00280487,.07588097,39.4073,242.9582,269.4153,78.9182,0,U,42738,999,775,0,-.114E-5,0
QZS-3 (QZSS/PRN 199),2017-048A,2026-07-01T00:56:41.409024,1.00269840,.0002282,0.0747,138.5272,318.8552,322.9242,0,U,42917,999,3239,0,-.337E-5,0
COSMOS 2522 (752),2017-055A,2026-06-30T17:33:16.197408,2.13101886,.0010858,64.0804,191.4232,240.8313,119.0975,0,U,42939,999,6826,0,.8E-6,0
QZS-4 (QZSS/PRN 195),2017-062A,2026-06-30T07:50:44.718144,1.00295775,.07467097,40.1009,343.3188,268.3129,282.6055,0,U,42965,999,3193,0,-.331E-5,0
BEIDOU-3 M1 (C19),2017-069A,2026-06-29T11:35:35.102688,1.86231574,.00098882,56.7025,62.6794,326.2778,33.7184,0,U,43001,999,5883,0,-.55E-6,0
BEIDOU-3 M2 (C20),2017-069B,2026-06-28T08:20:59.410176,1.86230827,.0008853,56.7011,62.7525,353.2945,6.7468,0,U,43002,999,5880,0,-.66E-6,0
GSAT0215 (GALILEO 19),2017-079A,2026-06-28T03:51:18.726624,1.70474711,.00031009,55.0711,221.2046,263.9664,96.0952,0,U,43055,999,5317,0,.69E-6,0
